[{"OBJECT_NAME":"STARLINK-36800","OBJECT_ID":"2026-032A","EPOCH":"2026-03-16T05:41:06.017280","MEAN_MOTION":15.75309054,"ECCENTRICITY":0.00024834,"INCLINATION":97.2832,"RA_OF_ASC_NODE":262.0404,"ARG_OF_PERICENTER":54.9512,"MEAN_ANOMALY":305.1986,"EPHEMERIS_TYPE":0,"CLASSIFICATION_TYPE":"U","NORAD_CAT_ID":67797,"ELEMENT_SET_NO":999,"REV_AT_EPOCH":581,"BSTAR":0.0018024372,"MEAN_MOTION_DOT":0.00279132,"MEAN_MOTION_DDOT":0},{"OBJECT_NAME":"STARLINK-36798","OBJECT_ID":"2026-032B","EPOCH":"2026-03-16T19:01:02.456256","MEAN_MOTION":15.75405694,"ECCENTRICITY":0.0002197,"INCLINATION":97.2816,"RA_OF_ASC_NODE":262.6626,"ARG_OF_PERICENTER":122.4999,"MEAN_ANOMALY":237.6478,"EPHEMERIS_TYPE":0,"CLASSIFICATION_TYPE":"U","NORAD_CAT_ID":67798,"ELEMENT_SET_NO":999,"REV_AT_EPOCH":590,"BSTAR":0.0020271,"MEAN_MOTION_DOT":0.00316643,"MEAN_MOTION_DDOT":0},{"OBJECT_NAME":"STARLINK-36804","OBJECT_ID":"2026-032C","EPOCH":"2026-03-16T05:38:33.255168","MEAN_MOTION":15.75280226,"ECCENTRICITY":0.00012219,"INCLINATION":97.2828,"RA_OF_ASC_NODE":262.0424,"ARG_OF_PERICENTER":47.701,"MEAN_ANOMALY":312.4358,"EPHEMERIS_TYPE":0,"CLASSIFICATION_TYPE":"U","NORAD_CAT_ID":67799,"ELEMENT_SET_NO":999,"REV_AT_EPOCH":581,"BSTAR":0.0014676158,"MEAN_MOTION_DOT":0.00225532,"MEAN_MOTION_DDOT":0},{"OBJECT_NAME":"STARLINK-36354","OBJECT_ID":"2026-032D","EPOCH":"2026-03-16T00:48:22.159584","MEAN_MOTION":15.75268987,"ECCENTRICITY":0.00014566,"INCLINATION":97.2832,"RA_OF_ASC_NODE":261.8602,"ARG_OF_PERICENTER":39.6883,"MEAN_ANOMALY":320.4489,"EPHEMERIS_TYPE":0,"CLASSIFICATION_TYPE":"U","NORAD_CAT_ID":67800,"ELEMENT_SET_NO":999,"REV_AT_EPOCH":578,"BSTAR":0.0018728553,"MEAN_MOTION_DOT":0.00289902,"MEAN_MOTION_DDOT":0},{"OBJECT_NAME":"STARLINK-36773","OBJECT_ID":"2026-032E","EPOCH":"2026-03-16T00:59:33.376128","MEAN_MOTION":15.75244856,"ECCENTRICITY":0.00033459,"INCLINATION":97.2824,"RA_OF_ASC_NODE":261.8464,"ARG_OF_PERICENTER":68.3832,"MEAN_ANOMALY":291.7789,"EPHEMERIS_TYPE":0,"CLASSIFICATION_TYPE":"U","NORAD_CAT_ID":67801,"ELEMENT_SET_NO":999,"REV_AT_EPOCH":578,"BSTAR":0.0013819901,"MEAN_MOTION_DOT":0.00211728,"MEAN_MOTION_DDOT":0},{"OBJECT_NAME":"STARLINK-36739","OBJECT_ID":"2026-032F","EPOCH":"2026-03-16T18:50:52.640736","MEAN_MOTION":15.75233933,"ECCENTRICITY":0.0001309,"INCLINATION":97.2827,"RA_OF_ASC_NODE":262.6721,"ARG_OF_PERICENTER":83.4448,"MEAN_ANOMALY":276.6966,"EPHEMERIS_TYPE":0,"CLASSIFICATION_TYPE":"U","NORAD_CAT_ID":67802,"ELEMENT_SET_NO":999,"REV_AT_EPOCH":590,"BSTAR":0.0013601,"MEAN_MOTION_DOT":0.00208153,"MEAN_MOTION_DDOT":0},{"OBJECT_NAME":"STARLINK-36768","OBJECT_ID":"2026-032G","EPOCH":"2026-03-16T00:50:55.494528","MEAN_MOTION":15.75208945,"ECCENTRICITY":0.00045115,"INCLINATION":97.2831,"RA_OF_ASC_NODE":261.8549,"ARG_OF_PERICENTER":58.4736,"MEAN_ANOMALY":301.6969,"EPHEMERIS_TYPE":0,"CLASSIFICATION_TYPE":"U","NORAD_CAT_ID":67803,"ELEMENT_SET_NO":999,"REV_AT_EPOCH":578,"BSTAR":0.0013093218,"MEAN_MOTION_DOT":0.00200045,"MEAN_MOTION_DDOT":0},{"OBJECT_NAME":"STARLINK-36792","OBJECT_ID":"2026-032H","EPOCH":"2026-03-16T00:54:28.893888","MEAN_MOTION":15.75190912,"ECCENTRICITY":0.00043343,"INCLINATION":97.2832,"RA_OF_ASC_NODE":261.8513,"ARG_OF_PERICENTER":59.0345,"MEAN_ANOMALY":301.1346,"EPHEMERIS_TYPE":0,"CLASSIFICATION_TYPE":"U","NORAD_CAT_ID":67804,"ELEMENT_SET_NO":999,"REV_AT_EPOCH":578,"BSTAR":0.0013033455,"MEAN_MOTION_DOT":0.00198943,"MEAN_MOTION_DDOT":0},{"OBJECT_NAME":"STARLINK-36782","OBJECT_ID":"2026-032J","EPOCH":"2026-03-16T18:36:38.924928","MEAN_MOTION":15.75220514,"ECCENTRICITY":7.51e-5,"INCLINATION":97.2826,"RA_OF_ASC_NODE":262.6851,"ARG_OF_PERICENTER":83.407,"MEAN_ANOMALY":276.7281,"EPHEMERIS_TYPE":0,"CLASSIFICATION_TYPE":"U","NORAD_CAT_ID":67805,"ELEMENT_SET_NO":999,"REV_AT_EPOCH":590,"BSTAR":0.0012613,"MEAN_MOTION_DOT":0.00192552,"MEAN_MOTION_DDOT":0},{"OBJECT_NAME":"STARLINK-36389","OBJECT_ID":"2026-032K","EPOCH":"2026-03-16T20:27:25.905888","MEAN_MOTION":15.7535699,"ECCENTRICITY":0.0002376,"INCLINATION":97.2825,"RA_OF_ASC_NODE":262.7325,"ARG_OF_PERICENTER":172.7898,"MEAN_ANOMALY":187.3402,"EPHEMERIS_TYPE":0,"CLASSIFICATION_TYPE":"U","NORAD_CAT_ID":67806,"ELEMENT_SET_NO":999,"REV_AT_EPOCH":591,"BSTAR":0.0015535,"MEAN_MOTION_DOT":0.00239946,"MEAN_MOTION_DDOT":0},{"OBJECT_NAME":"STARLINK-36382","OBJECT_ID":"2026-032L","EPOCH":"2026-03-16T18:52:54.562368","MEAN_MOTION":15.75233004,"ECCENTRICITY":0.0002364,"INCLINATION":97.2824,"RA_OF_ASC_NODE":262.6674,"ARG_OF_PERICENTER":86.1359,"MEAN_ANOMALY":274.0177,"EPHEMERIS_TYPE":0,"CLASSIFICATION_TYPE":"U","NORAD_CAT_ID":67807,"ELEMENT_SET_NO":999,"REV_AT_EPOCH":590,"BSTAR":0.0013932,"MEAN_MOTION_DOT":0.00213358,"MEAN_MOTION_DDOT":0},{"OBJECT_NAME":"STARLINK-36811","OBJECT_ID":"2026-032M","EPOCH":"2026-03-16T18:38:40.868160","MEAN_MOTION":15.75222883,"ECCENTRICITY":0.0001291,"INCLINATION":97.2836,"RA_OF_ASC_NODE":262.6831,"ARG_OF_PERICENTER":88.8699,"MEAN_ANOMALY":271.2715,"EPHEMERIS_TYPE":0,"CLASSIFICATION_TYPE":"U","NORAD_CAT_ID":67808,"ELEMENT_SET_NO":999,"REV_AT_EPOCH":590,"BSTAR":0.0012227,"MEAN_MOTION_DOT":0.00186548,"MEAN_MOTION_DDOT":0},{"OBJECT_NAME":"STARLINK-36795","OBJECT_ID":"2026-032N","EPOCH":"2026-03-16T00:45:19.257696","MEAN_MOTION":15.75279798,"ECCENTRICITY":0.00015596,"INCLINATION":97.2831,"RA_OF_ASC_NODE":261.8586,"ARG_OF_PERICENTER":54.1647,"MEAN_ANOMALY":305.9763,"EPHEMERIS_TYPE":0,"CLASSIFICATION_TYPE":"U","NORAD_CAT_ID":67809,"ELEMENT_SET_NO":999,"REV_AT_EPOCH":578,"BSTAR":0.0021306909,"MEAN_MOTION_DOT":0.0033162,"MEAN_MOTION_DDOT":0},{"OBJECT_NAME":"STARLINK-36807","OBJECT_ID":"2026-032P","EPOCH":"2026-03-16T01:53:54.418848","MEAN_MOTION":15.75215599,"ECCENTRICITY":0.0002549,"INCLINATION":97.2836,"RA_OF_ASC_NODE":261.9474,"ARG_OF_PERICENTER":80.0108,"MEAN_ANOMALY":280.1445,"EPHEMERIS_TYPE":0,"CLASSIFICATION_TYPE":"U","NORAD_CAT_ID":67810,"ELEMENT_SET_NO":999,"REV_AT_EPOCH":579,"BSTAR":-6.0167629e-5,"MEAN_MOTION_DOT":-9.106e-5,"MEAN_MOTION_DDOT":0},{"OBJECT_NAME":"STARLINK-36733","OBJECT_ID":"2026-032Q","EPOCH":"2026-03-16T18:26:29.145696","MEAN_MOTION":15.75321182,"ECCENTRICITY":0.0001731,"INCLINATION":97.2835,"RA_OF_ASC_NODE":262.6928,"ARG_OF_PERICENTER":116.5596,"MEAN_ANOMALY":243.5847,"EPHEMERIS_TYPE":0,"CLASSIFICATION_TYPE":"U","NORAD_CAT_ID":67811,"ELEMENT_SET_NO":999,"REV_AT_EPOCH":590,"BSTAR":0.0014719,"MEAN_MOTION_DOT":0.00226619,"MEAN_MOTION_DDOT":0},{"OBJECT_NAME":"STARLINK-36377","OBJECT_ID":"2026-032R","EPOCH":"2026-03-16T01:36:38.950272","MEAN_MOTION":15.75209538,"ECCENTRICITY":0.00013298,"INCLINATION":97.2835,"RA_OF_ASC_NODE":261.9635,"ARG_OF_PERICENTER":79.8562,"MEAN_ANOMALY":280.2853,"EPHEMERIS_TYPE":0,"CLASSIFICATION_TYPE":"U","NORAD_CAT_ID":67812,"ELEMENT_SET_NO":999,"REV_AT_EPOCH":579,"BSTAR":0.0021172215,"MEAN_MOTION_DOT":0.00328401,"MEAN_MOTION_DDOT":0}]
