STARLINK-36800          
1 67797U 26032A   26075.23687520  .00279132  00000+0  18024-2 0  9992
2 67797  97.2832 262.0404 0002483  54.9512 305.1986 15.75309054  5815
STARLINK-36798          
1 67798U 26032B   26075.79238954  .00316643  00000+0  20271-2 0  9993
2 67798  97.2816 262.6626 0002197 122.4999 237.6478 15.75405694  5904
STARLINK-36804          
1 67799U 26032C   26075.23510712  .00225532  00000+0  14676-2 0  9996
2 67799  97.2828 262.0424 0001221  47.7010 312.4358 15.75280226  5819
STARLINK-36354          
1 67800U 26032D   26075.03358981  .00289902  00000+0  18729-2 0  9999
2 67800  97.2832 261.8602 0001456  39.6883 320.4489 15.75268987  5780
STARLINK-36773          
1 67801U 26032E   26075.04135852  .00211728  00000+0  13820-2 0  9999
2 67801  97.2824 261.8464 0003345  68.3832 291.7789 15.75244856  5782
STARLINK-36739          
1 67802U 26032F   26075.78533149  .00208153  00000+0  13601-2 0  9997
2 67802  97.2827 262.6721 0001309  83.4448 276.6966 15.75233933  5907
STARLINK-36768          
1 67803U 26032G   26075.03536452  .00200045  00000+0  13093-2 0  9993
2 67803  97.2831 261.8549 0004511  58.4736 301.6969 15.75208945  5785
STARLINK-36792          
1 67804U 26032H   26075.03783442  .00198943  00000+0  13033-2 0  9994
2 67804  97.2832 261.8513 0004334  59.0345 301.1346 15.75190912  5782
STARLINK-36782          
1 67805U 26032J   26075.77545052  .00192552  00000+0  12613-2 0  9992
2 67805  97.2826 262.6851 0000751  83.4070 276.7281 15.75220514  5906
STARLINK-36389          
1 67806U 26032K   26075.85238317  .00239946  00000+0  15535-2 0  9990
2 67806  97.2825 262.7325 0002376 172.7898 187.3402 15.75356990  5919
STARLINK-36382          
1 67807U 26032L   26075.78674262  .00213358  00000+0  13932-2 0  9994
2 67807  97.2824 262.6674 0002364  86.1359 274.0177 15.75233004  5904
STARLINK-36811          
1 67808U 26032M   26075.77686190  .00186548  00000+0  12227-2 0  9993
2 67808  97.2836 262.6831 0001291  88.8699 271.2715 15.75222883  5907
STARLINK-36795          
1 67809U 26032N   26075.03147289  .00331620  00000+0  21307-2 0  9996
2 67809  97.2831 261.8586 0001559  54.1647 305.9763 15.75279798  5788
STARLINK-36807          
1 67810U 26032P   26075.07910207 -.00009106  00000+0 -60168-4 0  9993
2 67810  97.2836 261.9474 0002549  80.0108 280.1445 15.75215599  5793
STARLINK-36733          
1 67811U 26032Q   26075.76839289  .00226619  00000+0  14719-2 0  9997
2 67811  97.2835 262.6928 0001731 116.5596 243.5847 15.75321182  5901
STARLINK-36377          
1 67812U 26032R   26075.06711748  .00328401  00000+0  21172-2 0  9993
2 67812  97.2835 261.9635 0001329  79.8562 280.2853 15.75209538  5798
